{
    "links": {
        "self": "http://www.neowsapp.com/rest/v1/neo/3795088?api_key=iIulBulltgU6a56xZRHN4H3l9WmuAYTsLGpBGhQ2"
    },
    "id": "3795088",
    "neo_reference_id": "3795088",
    "name": "(2017 YO5)",
    "designation": "2017 YO5",
    "nasa_jpl_url": "http://ssd.jpl.nasa.gov/sbdb.cgi?sstr=3795088",
    "absolute_magnitude_h": 26.1,
    "estimated_diameter": {
        "kilometers": {
            "estimated_diameter_min": 0.0160160338,
            "estimated_diameter_max": 0.0358129403
        },
        "meters": {
            "estimated_diameter_min": 16.0160337979,
            "estimated_diameter_max": 35.8129403019
        },
        "miles": {
            "estimated_diameter_min": 0.0099518989,
            "estimated_diameter_max": 0.0222531225
        },
        "feet": {
            "estimated_diameter_min": 52.5460443254,
            "estimated_diameter_max": 117.4965270602
        }
    },
    "is_potentially_hazardous_asteroid": false,
    "close_approach_data": [
        {
            "close_approach_date": "1953-10-08",
            "close_approach_date_full": "1953-Oct-08 03:13",
            "epoch_date_close_approach": -512254020000,
            "relative_velocity": {
                "kilometers_per_second": "19.3864497696",
                "kilometers_per_hour": "69791.219170506",
                "miles_per_hour": "43365.5494895847"
            },
            "miss_distance": {
                "astronomical": "0.4142459564",
                "lunar": "161.1416770396",
                "kilometers": "61970312.733552868",
                "miles": "38506566.7594028584"
            },
            "orbiting_body": "Earth"
        },
        {
            "close_approach_date": "2013-02-05",
            "close_approach_date_full": "2013-Feb-05 00:59",
            "epoch_date_close_approach": 1360025940000,
            "relative_velocity": {
                "kilometers_per_second": "20.0593148163",
                "kilometers_per_hour": "72213.5333386242",
                "miles_per_hour": "44870.6813125468"
            },
            "miss_distance": {
                "astronomical": "0.4246411535",
                "lunar": "165.1854087115",
                "kilometers": "63525412.077943045",
                "miles": "39472860.684362221"
            },
            "orbiting_body": "Earth"
        },
        {
            "close_approach_date": "2017-12-21",
            "close_approach_date_full": "2017-Dec-21 11:17",
            "epoch_date_close_approach": 1513855020000,
            "relative_velocity": {
                "kilometers_per_second": "7.8655185053",
                "kilometers_per_hour": "28315.8666190158",
                "miles_per_hour": "17594.3783444657"
            },
            "miss_distance": {
                "astronomical": "0.0045486285",
                "lunar": "1.7694164865",
                "kilometers": "680465.135021295",
                "miles": "422821.428412071"
            },
            "orbiting_body": "Moon"
        },
        {
            "close_approach_date": "2017-12-21",
            "close_approach_date_full": "2017-Dec-21 23:21",
            "epoch_date_close_approach": 1513898460000,
            "relative_velocity": {
                "kilometers_per_second": "7.3768546316",
                "kilometers_per_hour": "26556.6766737144",
                "miles_per_hour": "16501.2861253977"
            },
            "miss_distance": {
                "astronomical": "0.0036657031",
                "lunar": "1.4259585059",
                "kilometers": "548381.375812397",
                "miles": "340748.3862171986"
            },
            "orbiting_body": "Earth"
        }
    ],
    "orbital_data": {
        "orbit_id": "4",
        "orbit_determination_date": "2018-03-13 06:12:29",
        "first_observation_date": "2017-12-25",
        "last_observation_date": "2018-01-20",
        "data_arc_in_days": 26,
        "observations_used": 31,
        "orbit_uncertainty": "7",
        "minimum_orbit_intersection": ".0010441",
        "jupiter_tisserand_invariant": "3.931",
        "epoch_osculation": "2459000.5",
        "eccentricity": ".4588495148636007",
        "semi_major_axis": "1.79946211603396",
        "inclination": "5.82921703960075",
        "ascending_node_longitude": "91.82699706518821",
        "orbital_period": "881.6830439056299",
        "perihelion_distance": ".9737797970763491",
        "perihelion_argument": "344.7120757362315",
        "aphelion_distance": "2.625144434991571",
        "perihelion_time": "2458980.820210078414",
        "mean_anomaly": "8.0354549412537",
        "mean_motion": ".4083099958521287",
        "equinox": "J2000",
        "orbit_class": {
            "orbit_class_type": "APO",
            "orbit_class_description": "Near-Earth asteroid orbits which cross the Earth’s orbit similar to that of 1862 Apollo",
            "orbit_class_range": "a (semi-major axis) > 1.0 AU; q (perihelion) < 1.017 AU"
        }
    },
    "is_sentry_object": false
}